BEIDOU-3 M2             
1 40749U 15037B   17345.62899325 -.00000104  00000-0  00000+0 0  9999
2 40749  55.5613  47.4696 0008718 272.0150 151.1153  1.86232466 16202
